[Satellite]
VERSION=1.1
NAME=COSMOS 2424 (715)
NICKNAME=COSMOS 2424 (715)
TLE1=1 29672U 06062C   15054.66299999 -.00000063  00000-0  10000-3 0  9998
TLE2=2 29672  65.8106 333.2565 0014069 166.0448 114.0024  2.13102085 63531
